[{"OBJECT_NAME":"STARLINK-5991","OBJECT_ID":"2023-058Q","EPOCH":"2026-03-09T23:40:13.159488","MEAN_MOTION":15.01258137,"ECCENTRICITY":0.00016782,"INCLINATION":97.6036,"RA_OF_ASC_NODE":70.4805,"ARG_OF_PERICENTER":92.4782,"MEAN_ANOMALY":267.6635,"EPHEMERIS_TYPE":0,"CLASSIFICATION_TYPE":"U","NORAD_CAT_ID":56331,"ELEMENT_SET_NO":999,"REV_AT_EPOCH":15817,"BSTAR":-8.5881e-6,"MEAN_MOTION_DOT":-1.69e-6,"MEAN_MOTION_DDOT":0},{"OBJECT_NAME":"COSMOS 2242","OBJECT_ID":"1993-024A","EPOCH":"2026-03-09T23:17:07.942848","MEAN_MOTION":14.96550444,"ECCENTRICITY":0.00151707,"INCLINATION":82.5157,"RA_OF_ASC_NODE":266.4481,"ARG_OF_PERICENTER":307.8411,"MEAN_ANOMALY":52.1437,"EPHEMERIS_TYPE":0,"CLASSIFICATION_TYPE":"U","NORAD_CAT_ID":22626,"ELEMENT_SET_NO":999,"REV_AT_EPOCH":78043,"BSTAR":0.00021609887,"MEAN_MOTION_DOT":2.488e-5,"MEAN_MOTION_DDOT":0}]
